[{"OBJECT_NAME":"SL-12 R/B(2)","OBJECT_ID":"1980-081F","EPOCH":"2026-03-06T11:20:27.712608","MEAN_MOTION":0.99978569,"ECCENTRICITY":0.00058795,"INCLINATION":6.4201,"RA_OF_ASC_NODE":291.1901,"ARG_OF_PERICENTER":43.6247,"MEAN_ANOMALY":169.0914,"EPHEMERIS_TYPE":0,"CLASSIFICATION_TYPE":"U","NORAD_CAT_ID":12447,"ELEMENT_SET_NO":999,"REV_AT_EPOCH":16335,"BSTAR":0,"MEAN_MOTION_DOT":-9.7e-7,"MEAN_MOTION_DDOT":0},{"OBJECT_NAME":"SL-12 R/B(2)","OBJECT_ID":"1980-104E","EPOCH":"2026-03-06T13:32:44.363040","MEAN_MOTION":1.01344192,"ECCENTRICITY":0.0030458,"INCLINATION":5.7458,"RA_OF_ASC_NODE":288.013,"ARG_OF_PERICENTER":194.6388,"MEAN_ANOMALY":157.9058,"EPHEMERIS_TYPE":0,"CLASSIFICATION_TYPE":"U","NORAD_CAT_ID":12471,"ELEMENT_SET_NO":999,"REV_AT_EPOCH":11891,"BSTAR":0,"MEAN_MOTION_DOT":-2.62e-6,"MEAN_MOTION_DDOT":0},{"OBJECT_NAME":"GOES 5","OBJECT_ID":"1981-049A","EPOCH":"2026-03-06T04:58:34.330656","MEAN_MOTION":1.00211123,"ECCENTRICITY":0.00046527,"INCLINATION":9.5428,"RA_OF_ASC_NODE":316.3313,"ARG_OF_PERICENTER":337.3827,"MEAN_ANOMALY":215.8254,"EPHEMERIS_TYPE":0,"CLASSIFICATION_TYPE":"U","NORAD_CAT_ID":12472,"ELEMENT_SET_NO":999,"REV_AT_EPOCH":12181,"BSTAR":0,"MEAN_MOTION_DOT":-1.95e-6,"MEAN_MOTION_DDOT":0},{"OBJECT_NAME":"APPLE","OBJECT_ID":"1981-057B","EPOCH":"2026-03-06T13:40:06.157344","MEAN_MOTION":1.00038994,"ECCENTRICITY":0.00221485,"INCLINATION":7.2688,"RA_OF_ASC_NODE":297.6346,"ARG_OF_PERICENTER":229.8326,"MEAN_ANOMALY":143.0758,"EPHEMERIS_TYPE":0,"CLASSIFICATION_TYPE":"U","NORAD_CAT_ID":12545,"ELEMENT_SET_NO":999,"REV_AT_EPOCH":12136,"BSTAR":0,"MEAN_MOTION_DOT":-2.86e-6,"MEAN_MOTION_DDOT":0},{"OBJECT_NAME":"EKRAN 7","OBJECT_ID":"1981-061A","EPOCH":"2026-03-06T14:26:01.752288","MEAN_MOTION":1.00270898,"ECCENTRICITY":0.00062948,"INCLINATION":6.7712,"RA_OF_ASC_NODE":293.9315,"ARG_OF_PERICENTER":44.6874,"MEAN_ANOMALY":142.3525,"EPHEMERIS_TYPE":0,"CLASSIFICATION_TYPE":"U","NORAD_CAT_ID":12564,"ELEMENT_SET_NO":999,"REV_AT_EPOCH":12848,"BSTAR":0,"MEAN_MOTION_DOT":-3.14e-6,"MEAN_MOTION_DDOT":0},{"OBJECT_NAME":"RADUGA 9","OBJECT_ID":"1981-069A","EPOCH":"2026-03-06T14:09:58.532256","MEAN_MOTION":1.00206607,"ECCENTRICITY":3.843e-5,"INCLINATION":6.8331,"RA_OF_ASC_NODE":294.407,"ARG_OF_PERICENTER":64.8222,"MEAN_ANOMALY":116.2017,"EPHEMERIS_TYPE":0,"CLASSIFICATION_TYPE":"U","NORAD_CAT_ID":12618,"ELEMENT_SET_NO":999,"REV_AT_EPOCH":4631,"BSTAR":0,"MEAN_MOTION_DOT":-2.93e-6,"MEAN_MOTION_DDOT":0},{"OBJECT_NAME":"COSMOS 1285","OBJECT_ID":"1981-071A","EPOCH":"2026-03-06T11:56:31.755264","MEAN_MOTION":1.98058027,"ECCENTRICITY":0.60628665,"INCLINATION":68.4681,"RA_OF_ASC_NODE":98.0695,"ARG_OF_PERICENTER":354.8842,"MEAN_ANOMALY":205.9398,"EPHEMERIS_TYPE":0,"CLASSIFICATION_TYPE":"U","NORAD_CAT_ID":12627,"ELEMENT_SET_NO":999,"REV_AT_EPOCH":24446,"BSTAR":0,"MEAN_MOTION_DOT":5.59e-6,"MEAN_MOTION_DDOT":0},{"OBJECT_NAME":"HIMAWARI-2 (GMS-2)","OBJECT_ID":"1981-076A","EPOCH":"2026-03-06T06:29:33.106848","MEAN_MOTION":0.99550001,"ECCENTRICITY":0.0012095,"INCLINATION":8.2025,"RA_OF_ASC_NODE":304.8639,"ARG_OF_PERICENTER":332.3323,"MEAN_ANOMALY":213.9437,"EPHEMERIS_TYPE":0,"CLASSIFICATION_TYPE":"U","NORAD_CAT_ID":12677,"ELEMENT_SET_NO":999,"REV_AT_EPOCH":13120,"BSTAR":0,"MEAN_MOTION_DOT":8.7e-7,"MEAN_MOTION_DDOT":0},{"OBJECT_NAME":"SL-6 R/B(2)","OBJECT_ID":"1981-071D","EPOCH":"2026-03-06T00:27:37.592640","MEAN_MOTION":1.99209724,"ECCENTRICITY":0.67396486,"INCLINATION":66.1833,"RA_OF_ASC_NODE":63.2842,"ARG_OF_PERICENTER":16.8923,"MEAN_ANOMALY":357.4666,"EPHEMERIS_TYPE":0,"CLASSIFICATION_TYPE":"U","NORAD_CAT_ID":12680,"ELEMENT_SET_NO":999,"REV_AT_EPOCH":24269,"BSTAR":0,"MEAN_MOTION_DOT":2.74e-6,"MEAN_MOTION_DDOT":0},{"OBJECT_NAME":"COSMOS 1124 DEB","OBJECT_ID":"1979-077E","EPOCH":"2026-03-05T17:19:08.808672","MEAN_MOTION":2.17273633,"ECCENTRICITY":0.73358156,"INCLINATION":60.3812,"RA_OF_ASC_NODE":235.5286,"ARG_OF_PERICENTER":65.2638,"MEAN_ANOMALY":351.6731,"EPHEMERIS_TYPE":0,"CLASSIFICATION_TYPE":"U","NORAD_CAT_ID":12814,"ELEMENT_SET_NO":999,"REV_AT_EPOCH":6082,"BSTAR":0.018915915,"MEAN_MOTION_DOT":0.00016384,"MEAN_MOTION_DDOT":0},{"OBJECT_NAME":"COSMOS 1191 DEB","OBJECT_ID":"1980-057E","EPOCH":"2026-03-05T23:04:30.667584","MEAN_MOTION":1.99785243,"ECCENTRICITY":0.71497594,"INCLINATION":64.2011,"RA_OF_ASC_NODE":19.2973,"ARG_OF_PERICENTER":33.8593,"MEAN_ANOMALY":355.631,"EPHEMERIS_TYPE":0,"CLASSIFICATION_TYPE":"U","NORAD_CAT_ID":12817,"ELEMENT_SET_NO":999,"REV_AT_EPOCH":24714,"BSTAR":0,"MEAN_MOTION_DOT":1.025e-5,"MEAN_MOTION_DDOT":0},{"OBJECT_NAME":"SL-12 R/B(2)","OBJECT_ID":"1981-061F","EPOCH":"2026-03-06T17:24:38.772864","MEAN_MOTION":1.01004281,"ECCENTRICITY":0.0003687,"INCLINATION":6.2425,"RA_OF_ASC_NODE":291.6365,"ARG_OF_PERICENTER":46.2571,"MEAN_ANOMALY":235.8101,"EPHEMERIS_TYPE":0,"CLASSIFICATION_TYPE":"U","NORAD_CAT_ID":12851,"ELEMENT_SET_NO":999,"REV_AT_EPOCH":4668,"BSTAR":0,"MEAN_MOTION_DOT":-8.1e-7,"MEAN_MOTION_DDOT":0},{"OBJECT_NAME":"SBS 2","OBJECT_ID":"1981-096A","EPOCH":"2026-03-06T17:56:38.521248","MEAN_MOTION":1.00141394,"ECCENTRICITY":0.0005051,"INCLINATION":10.4244,"RA_OF_ASC_NODE":322.1079,"ARG_OF_PERICENTER":269.0027,"MEAN_ANOMALY":327.452,"EPHEMERIS_TYPE":0,"CLASSIFICATION_TYPE":"U","NORAD_CAT_ID":12855,"ELEMENT_SET_NO":999,"REV_AT_EPOCH":11758,"BSTAR":0,"MEAN_MOTION_DOT":-3.7e-6,"MEAN_MOTION_DDOT":0},{"OBJECT_NAME":"COSMOS 1261 DEB","OBJECT_ID":"1981-031E","EPOCH":"2026-03-06T04:34:33.360096","MEAN_MOTION":2.01393975,"ECCENTRICITY":0.74943043,"INCLINATION":62.17,"RA_OF_ASC_NODE":102.452,"ARG_OF_PERICENTER":45.4709,"MEAN_ANOMALY":355.4742,"EPHEMERIS_TYPE":0,"CLASSIFICATION_TYPE":"U","NORAD_CAT_ID":12892,"ELEMENT_SET_NO":999,"REV_AT_EPOCH":25734,"BSTAR":0.0044356048,"MEAN_MOTION_DOT":0.0001199,"MEAN_MOTION_DDOT":0},{"OBJECT_NAME":"COSMOS 1261 DEB","OBJECT_ID":"1981-031F","EPOCH":"2026-03-04T00:19:07.027392","MEAN_MOTION":2.01093549,"ECCENTRICITY":0.7124102,"INCLINATION":64.5252,"RA_OF_ASC_NODE":358.8429,"ARG_OF_PERICENTER":26.4437,"MEAN_ANOMALY":356.5562,"EPHEMERIS_TYPE":0,"CLASSIFICATION_TYPE":"U","NORAD_CAT_ID":12893,"ELEMENT_SET_NO":999,"REV_AT_EPOCH":30999,"BSTAR":0,"MEAN_MOTION_DOT":6.11e-6,"MEAN_MOTION_DDOT":0},{"OBJECT_NAME":"RADUGA 10","OBJECT_ID":"1981-102A","EPOCH":"2026-03-06T13:04:51.506112","MEAN_MOTION":1.00286443,"ECCENTRICITY":0.00029075,"INCLINATION":6.9478,"RA_OF_ASC_NODE":295.6906,"ARG_OF_PERICENTER":271.0997,"MEAN_ANOMALY":220.3432,"EPHEMERIS_TYPE":0,"CLASSIFICATION_TYPE":"U","NORAD_CAT_ID":12897,"ELEMENT_SET_NO":999,"REV_AT_EPOCH":11631,"BSTAR":0,"MEAN_MOTION_DOT":-2.2e-7,"MEAN_MOTION_DDOT":0},{"OBJECT_NAME":"COSMOS 1030 DEB","OBJECT_ID":"1978-083E","EPOCH":"2026-03-06T19:42:55.719936","MEAN_MOTION":2.04479043,"ECCENTRICITY":0.749326,"INCLINATION":62.1906,"RA_OF_ASC_NODE":22.7873,"ARG_OF_PERICENTER":58.2515,"MEAN_ANOMALY":353.4014,"EPHEMERIS_TYPE":0,"CLASSIFICATION_TYPE":"U","NORAD_CAT_ID":12907,"ELEMENT_SET_NO":999,"REV_AT_EPOCH":33247,"BSTAR":0.0019547,"MEAN_MOTION_DOT":0.00020459,"MEAN_MOTION_DDOT":8.9073e-7},{"OBJECT_NAME":"COSMOS 1030 DEB","OBJECT_ID":"1978-083F","EPOCH":"2026-02-26T03:48:33.297408","MEAN_MOTION":2.00027955,"ECCENTRICITY":0.6380036,"INCLINATION":66.202,"RA_OF_ASC_NODE":266.2941,"ARG_OF_PERICENTER":344.0164,"MEAN_ANOMALY":2.8492,"EPHEMERIS_TYPE":0,"CLASSIFICATION_TYPE":"U","NORAD_CAT_ID":12919,"ELEMENT_SET_NO":999,"REV_AT_EPOCH":6636,"BSTAR":0,"MEAN_MOTION_DOT":5.8e-6,"MEAN_MOTION_DDOT":0},{"OBJECT_NAME":"OPS 4029","OBJECT_ID":"1981-107A","EPOCH":"2026-03-06T19:21:48.391776","MEAN_MOTION":1.00377289,"ECCENTRICITY":0.1039215,"INCLINATION":5.5875,"RA_OF_ASC_NODE":0.7931,"ARG_OF_PERICENTER":42.9216,"MEAN_ANOMALY":96.5672,"EPHEMERIS_TYPE":0,"CLASSIFICATION_TYPE":"U","NORAD_CAT_ID":12930,"ELEMENT_SET_NO":999,"REV_AT_EPOCH":684,"BSTAR":0,"MEAN_MOTION_DOT":3.8e-7,"MEAN_MOTION_DDOT":0},{"OBJECT_NAME":"TITAN 3C TRANSTAGE R/B","OBJECT_ID":"1981-107C","EPOCH":"2026-03-06T04:26:22.190784","MEAN_MOTION":0.99599883,"ECCENTRICITY":0.1005672,"INCLINATION":5.2351,"RA_OF_ASC_NODE":5.6581,"ARG_OF_PERICENTER":115.2808,"MEAN_ANOMALY":255.5378,"EPHEMERIS_TYPE":0,"CLASSIFICATION_TYPE":"U","NORAD_CAT_ID":12932,"ELEMENT_SET_NO":999,"REV_AT_EPOCH":2519,"BSTAR":0,"MEAN_MOTION_DOT":-3.75e-6,"MEAN_MOTION_DDOT":0},{"OBJECT_NAME":"SL-6 R/B(2)","OBJECT_ID":"1981-108D","EPOCH":"2026-03-06T04:13:37.744320","MEAN_MOTION":1.99103419,"ECCENTRICITY":0.67006897,"INCLINATION":65.6645,"RA_OF_ASC_NODE":256.8355,"ARG_OF_PERICENTER":347.1229,"MEAN_ANOMALY":1.8421,"EPHEMERIS_TYPE":0,"CLASSIFICATION_TYPE":"U","NORAD_CAT_ID":12940,"ELEMENT_SET_NO":999,"REV_AT_EPOCH":32249,"BSTAR":0,"MEAN_MOTION_DOT":7.36e-6,"MEAN_MOTION_DDOT":0},{"OBJECT_NAME":"SATCOM 3R","OBJECT_ID":"1981-114A","EPOCH":"2026-03-06T04:59:34.235232","MEAN_MOTION":1.00097256,"ECCENTRICITY":0.00062998,"INCLINATION":12.2088,"RA_OF_ASC_NODE":332.6049,"ARG_OF_PERICENTER":327.7724,"MEAN_ANOMALY":212.9034,"EPHEMERIS_TYPE":0,"CLASSIFICATION_TYPE":"U","NORAD_CAT_ID":12967,"ELEMENT_SET_NO":999,"REV_AT_EPOCH":12703,"BSTAR":0,"MEAN_MOTION_DOT":-2.02e-6,"MEAN_MOTION_DDOT":0},{"OBJECT_NAME":"COSMOS 1247 DEB","OBJECT_ID":"1981-016F","EPOCH":"2026-03-06T20:12:49.789152","MEAN_MOTION":2.02677847,"ECCENTRICITY":0.6146238,"INCLINATION":69.3325,"RA_OF_ASC_NODE":13.3557,"ARG_OF_PERICENTER":341.8484,"MEAN_ANOMALY":3.366,"EPHEMERIS_TYPE":0,"CLASSIFICATION_TYPE":"U","NORAD_CAT_ID":12984,"ELEMENT_SET_NO":999,"REV_AT_EPOCH":32789,"BSTAR":0,"MEAN_MOTION_DOT":-8.47e-6,"MEAN_MOTION_DDOT":0},{"OBJECT_NAME":"COSMOS 1285 DEB","OBJECT_ID":"1981-071E","EPOCH":"2026-02-27T20:30:15.840000","MEAN_MOTION":1.97870491,"ECCENTRICITY":0.6487871,"INCLINATION":67.033,"RA_OF_ASC_NODE":91.3732,"ARG_OF_PERICENTER":8.8297,"MEAN_ANOMALY":358.7291,"EPHEMERIS_TYPE":0,"CLASSIFICATION_TYPE":"U","NORAD_CAT_ID":12993,"ELEMENT_SET_NO":999,"REV_AT_EPOCH":23604,"BSTAR":0,"MEAN_MOTION_DOT":-2.22e-6,"MEAN_MOTION_DDOT":0}]
